NORAD_CAT_ID,OBJECT_NAME,OBJECT_TYPE,EPOCH,MEAN_MOTION,ECCENTRICITY,INCLINATION,RA_OF_ASC_NODE,ARG_OF_PERICENTER,MEAN_ANOMALY,BSTAR,MEAN_MOTION_DOT,MEAN_MOTION_DDOT,TLE_LINE0,TLE_LINE1,TLE_LINE2,SEMIMAJOR_AXIS,PERIOD,APOGEE,PERIGEE,DECAYED
53293.0,STARLINK-4148,PAYLOAD,2023-06-15 20:18:33,15.08844294,0.0001095,53.2184,333.6148,93.837,266.2748,4.97e-05,5.03e-06,0.0,0 STARLINK-4148,1 53293U 22086BD  23166.84622493  .00000503  00000-0  49700-4 0  9998,2 53293  53.2184 333.6148 0001095  93.8370 266.2748 15.08844294 50522,6917.867,95.437,540.49,538.975,0.0
53293.0,STARLINK-4148,PAYLOAD,2023-06-16 10:37:01,15.08845082,0.0001056,53.2184,330.9382,79.4956,280.6155,0.00014471,2.016e-05,0.0,0 STARLINK-4148,1 53293U 22086BD  23167.44238198  .00002016  00000-0  14471-3 0  9997,2 53293  53.2184 330.9382 0001056  79.4956 280.6155 15.08845082 50774,6917.865,95.437,540.46,538.999,0.0
53293.0,STARLINK-4148,PAYLOAD,2023-06-16 20:09:19,15.08855631,9.17e-05,53.2173,329.1533,81.9223,278.1873,0.00019607,2.835e-05,0.0,0 STARLINK-4148,1 53293U 22086BD  23167.83981159  .00002835  00000-0  19607-3 0  9997,2 53293  53.2173 329.1533 0000917  81.9223 278.1873 15.08855631 50837,6917.833,95.437,540.332,539.063,0.0
53293.0,STARLINK-4148,PAYLOAD,2023-06-17 10:27:49,15.08829458,0.0001312,53.2176,326.4779,88.9034,271.2108,1.4738e-05,-5.3e-07,0.0,0 STARLINK-4148,1 53293U 22086BD  23168.43599473 -.00000053  00000-0  14738-4 0  9990,2 53293  53.2176 326.4779 0001312  88.9034 271.2108 15.08829458 50764,6917.913,95.438,540.685,538.87,0.0
53293.0,STARLINK-4148,PAYLOAD,2023-06-17 16:49:22,15.0882917,0.0001238,53.2176,325.2885,90.9513,269.1621,7.943e-06,-1.61e-06,0.0,0 STARLINK-4148,1 53293U 22086BD  23168.70095616 -.00000161  00000-0  79430-5 0  9991,2 53293  53.2176 325.2885 0001238  90.9513 269.1621 15.08829170 50960,6917.913,95.438,540.635,538.922,0.0
53293.0,STARLINK-4148,PAYLOAD,2023-06-18 03:57:04,15.0883775,9.59e-05,53.218,323.207,97.223,262.8871,1.6546e-05,-2.4e-07,0.0,0 STARLINK-4148,1 53293U 22086BD  23169.16463260 -.00000024  00000-0  16546-4 0  9992,2 53293  53.2180 323.2070 0000959  97.2230 262.8871 15.08837750 50874,6917.887,95.438,540.416,539.089,0.0
53293.0,STARLINK-4148,PAYLOAD,2023-06-18 16:40:08,15.08848199,8.89e-05,53.2167,320.8277,95.7444,264.3649,0.00016695,2.371e-05,0.0,0 STARLINK-4148,1 53293U 22086BD  23169.69454514  .00002371  00000-0  16695-3 0  9992,2 53293  53.2167 320.8277 0000889  95.7444 264.3649 15.08848199 50951,6917.855,95.437,540.335,539.105,0.0
53293.0,STARLINK-4148,PAYLOAD,2023-06-19 10:09:23,15.08839151,8.9e-05,53.2172,317.5564,106.0764,254.0326,0.00033997,5.127e-05,0.0,0 STARLINK-4148,1 53293U 22086BD  23170.42319084  .00005127  00000-0  33997-3 0  9993,2 53293  53.2172 317.5564 0000890 106.0764 254.0326 15.08839151 51061,6917.883,95.438,540.364,539.132,0.0
53293.0,STARLINK-4148,PAYLOAD,2023-06-19 18:06:18,15.08848088,7.59e-05,53.217,316.07,84.0251,276.0828,0.00033185,4.999e-05,0.0,0 STARLINK-4148,1 53293U 22086BD  23170.75438648  .00004999  00000-0  33185-3 0  9992,2 53293  53.2170 316.0700 0000759  84.0251 276.0828 15.08848088 51278,6917.856,95.437,540.246,539.196,0.0
53293.0,STARLINK-4148,PAYLOAD,2023-06-20 10:00:10,15.08837273,8.81e-05,53.218,313.0955,90.7379,269.3714,-4.4415e-05,-9.94e-06,0.0,0 STARLINK-4148,1 53293U 22086BD  23171.41679068 -.00000994  00000-0 -44415-4 0  9991,2 53293  53.2180 313.0955 0000881  90.7379 269.3714 15.08837273 51216,6917.889,95.438,540.363,539.144,0.0
53293.0,STARLINK-4148,PAYLOAD,2023-06-20 17:57:06,15.08845762,8.74e-05,53.2174,311.608,80.7896,279.3195,2.8558e-05,1.67e-06,0.0,0 STARLINK-4148,1 53293U 22086BD  23171.74798617  .00000167  00000-0  28558-4 0  9999,2 53293  53.2174 311.6080 0000874  80.7896 279.3195 15.08845762 51426,6917.863,95.437,540.332,539.123,0.0
53293.0,STARLINK-4148,PAYLOAD,2023-06-21 01:54:01,15.08844976,9.75e-05,53.2187,310.1211,83.0722,277.0381,1.5502e-05,-4.1e-07,0.0,0 STARLINK-4148,1 53293U 22086BD  23172.07918593 -.00000041  00000-0  15502-4 0  9990,2 53293  53.2187 310.1211 0000975  83.0722 277.0381 15.08844976 51312,6917.865,95.437,540.405,539.056,0.0
53293.0,STARLINK-4148,PAYLOAD,2023-06-21 13:01:44,15.08836267,0.0001035,53.2176,308.0424,97.1649,262.9461,-4.1595e-05,-9.5e-06,0.0,0 STARLINK-4148,1 53293U 22086BD  23172.54287172 -.00000950  00000-0 -41595-4 0  9995,2 53293  53.2176 308.0424 0001035  97.1649 262.9461 15.08836267 51387,6917.892,95.438,540.473,539.041,0.0
53293.0,STARLINK-4148,PAYLOAD,2023-06-21 16:12:30,15.08836737,8.74e-05,53.217,307.4489,91.8666,268.2426,4.2817e-06,-2.2e-06,0.0,0 STARLINK-4148,1 53293U 22086BD  23172.67535154 -.00000220  00000-0  42817-5 0  9993,2 53293  53.2170 307.4489 0000874  91.8666 268.2426 15.08836737 51567,6917.89,95.438,540.36,539.151,0.0
53293.0,STARLINK-4148,PAYLOAD,2023-06-22 16:03:17,15.08840668,9.38e-05,53.2168,302.9872,77.3656,282.7441,0.00011406,1.528e-05,0.0,0 STARLINK-4148,1 53293U 22086BD  23173.66895398  .00001528  00000-0  11406-3 0  9991,2 53293  53.2168 302.9872 0000938  77.3656 282.7441 15.08840668 51554,6917.878,95.438,540.392,539.094,0.0
53293.0,STARLINK-4148,PAYLOAD,2023-06-22 19:14:03,15.0884594,0.0001024,53.2164,302.3917,89.2365,270.8745,0.00018276,2.622e-05,0.0,0 STARLINK-4148,1 53293U 22086BD  23173.80142926  .00002622  00000-0  18276-3 0  9997,2 53293  53.2164 302.3917 0001024  89.2365 270.8745 15.08845940 51575,6917.862,95.437,540.436,539.019,0.0
53293.0,STARLINK-4148,PAYLOAD,2023-06-23 09:32:32,15.08832326,6.09e-05,53.2171,299.7142,98.3292,261.7769,0.00020232,2.933e-05,0.0,0 STARLINK-4148,1 53293U 22086BD  23174.39759605  .00002933  00000-0  20232-3 0  9990,2 53293  53.2171 299.7142 0000609  98.3292 261.7769 15.08832326 51669,6917.904,95.438,540.19,539.348,0.0
53293.0,STARLINK-4148,PAYLOAD,2023-06-23 17:29:27,15.0884702,8.01e-05,53.2174,298.2291,71.6409,288.467,0.00016933,2.409e-05,0.0,0 STARLINK-4148,1 53293U 22086BD  23174.72878986  .00002409  00000-0  16933-3 0  9992,2 53293  53.2174 298.2291 0000801  71.6409 288.4670 15.08847020 51719,6917.859,95.437,540.278,539.17,0.0
53293.0,STARLINK-4148,PAYLOAD,2023-06-24 07:47:56,15.08837029,8.67e-05,53.2158,295.5533,74.1007,286.0081,2.2207e-05,6.6e-07,0.0,0 STARLINK-4148,1 53293U 22086BD  23175.32495609  .00000066  00000-0  22207-4 0  9995,2 53293  53.2158 295.5533 0000867  74.1007 286.0081 15.08837029 51802,6917.889,95.438,540.354,539.155,0.0
53293.0,STARLINK-4148,PAYLOAD,2023-06-25 01:17:10,15.08847917,8.6e-05,53.2173,292.2822,96.8402,263.2688,4.5907e-05,4.43e-06,0.0,0 STARLINK-4148,1 53293U 22086BD  23176.05359096  .00000443  00000-0  45907-4 0  9996,2 53293  53.2173 292.2822 0000860  96.8402 263.2688 15.08847917 51916,6917.856,95.437,540.316,539.126,0.0
53293.0,STARLINK-4148,PAYLOAD,2023-06-25 07:38:43,15.08841353,0.0001261,53.218,291.0935,81.902,278.2115,0.00010623,1.403e-05,0.0,0 STARLINK-4148,1 53293U 22086BD  23176.31855648  .00001403  00000-0  10623-3 0  9992,2 53293  53.2180 291.0935 0001261  81.9020 278.2115 15.08841353 51956,6917.876,95.437,540.614,538.869,0.0
53293.0,STARLINK-4148,PAYLOAD,2023-06-26 07:29:30,15.08836274,0.0001382,53.2168,286.6335,84.2689,275.846,5.8868e-05,6.49e-06,0.0,0 STARLINK-4148,1 53293U 22086BD  23177.31216026  .00000649  00000-0  58868-4 0  9999,2 53293  53.2168 286.6335 0001382  84.2689 275.8460 15.08836274 52107,6917.892,95.438,540.713,538.801,0.0
53293.0,STARLINK-4148,PAYLOAD,2023-06-27 10:31:03,15.08843261,0.0001,53.2173,281.577,99.7121,260.3984,9.6182e-05,1.243e-05,0.0,0 STARLINK-4148,1 53293U 22086BD  23178.43823593  .00001243  00000-0  96182-4 0  9998,2 53293  53.2173 281.5770 0001000  99.7121 260.3984 15.08843261 52271,6917.87,95.437,540.427,539.044,0.0
53293.0,STARLINK-4148,PAYLOAD,2023-06-28 10:21:51,15.08837149,9.89e-05,53.2163,277.1168,93.976,266.1345,0.00013322,1.833e-05,0.0,0 STARLINK-4148,1 53293U 22086BD  23179.43184118  .00001833  00000-0  13322-3 0  9991,2 53293  53.2163 277.1168 0000989  93.9760 266.1345 15.08837149 52422,6917.889,95.438,540.438,539.07,0.0
53293.0,STARLINK-4148,PAYLOAD,2023-06-29 11:48:01,15.08837477,9.66e-05,53.2177,272.3595,102.3249,257.7851,8.9685e-06,-1.45e-06,0.0,0 STARLINK-4148,1 53293U 22086BD  23180.49168488 -.00000145  00000-0  89685-5 0  9994,2 53293  53.2177 272.3595 0000966 102.3249 257.7851 15.08837477 52589,6917.888,95.438,540.421,539.085,0.0
53293.0,STARLINK-4148,PAYLOAD,2023-06-30 13:14:11,15.08844996,8.65e-05,53.2174,267.6025,100.6984,259.4106,0.00011714,1.577e-05,0.0,0 STARLINK-4148,1 53293U 22086BD  23181.55151801  .00001577  00000-0  11714-3 0  9998,2 53293  53.2174 267.6025 0000865 100.6984 259.4106 15.08844996 52740,6917.865,95.437,540.329,539.132,0.0
53293.0,STARLINK-4148,PAYLOAD,2023-07-01 05:08:03,15.08834313,8.31e-05,53.2169,264.6289,89.0726,271.0361,8.2643e-05,1.028e-05,0.0,0 STARLINK-4148,1 53293U 22086BD  23182.21392574  .00001028  00000-0  82643-4 0  9997,2 53293  53.2169 264.6289 0000831  89.0726 271.0361 15.08834313 52846,6917.898,95.438,540.338,539.188,0.0
53293.0,STARLINK-4148,PAYLOAD,2023-07-02 11:20:22,15.08842162,8.33e-05,53.2167,258.9774,85.7615,274.3472,3.2272e-05,2.26e-06,0.0,0 STARLINK-4148,1 53293U 22086BD  23183.47248438  .00000226  00000-0  32272-4 0  9997,2 53293  53.2167 258.9774 0000833  85.7615 274.3472 15.08842162 53033,6917.874,95.437,540.315,539.163,0.0
53293.0,STARLINK-4148,PAYLOAD,2023-07-03 14:21:55,15.08847519,8.36e-05,53.2167,253.9219,82.6001,277.5086,0.00015417,2.167e-05,0.0,0 STARLINK-4148,1 53293U 22086BD  23184.59855742  .00002167  00000-0  15417-3 0  9990,2 53293  53.2167 253.9219 0000836  82.6001 277.5086 15.08847519 53206,6917.857,95.437,540.301,539.144,0.0
53293.0,STARLINK-4148,PAYLOAD,2023-07-03 22:18:51,15.08840576,8.38e-05,53.2169,252.4338,88.7236,271.3852,8.0318e-05,9.91e-06,0.0,0 STARLINK-4148,1 53293U 22086BD  23184.92976278  .00000991  00000-0  80318-4 0  9991,2 53293  53.2169 252.4338 0000838  88.7236 271.3852 15.08840576 53257,6917.879,95.438,540.323,539.164,0.0
